[{"OBJECT_NAME":"STARLINK-36969","OBJECT_ID":"2026-050A","EPOCH":"2026-04-05T14:53:24.826272","MEAN_MOTION":15.80994152,"ECCENTRICITY":9.86e-5,"INCLINATION":53.1562,"RA_OF_ASC_NODE":146.8758,"ARG_OF_PERICENTER":72.0755,"MEAN_ANOMALY":288.0375,"EPHEMERIS_TYPE":0,"CLASSIFICATION_TYPE":"U","NORAD_CAT_ID":68167,"ELEMENT_SET_NO":999,"REV_AT_EPOCH":473,"BSTAR":0.00093802,"MEAN_MOTION_DOT":0.00189613,"MEAN_MOTION_DDOT":0},{"OBJECT_NAME":"STARLINK-36984","OBJECT_ID":"2026-050B","EPOCH":"2026-04-05T20:00:03.000384","MEAN_MOTION":15.77222945,"ECCENTRICITY":9.27e-5,"INCLINATION":53.1585,"RA_OF_ASC_NODE":145.8103,"ARG_OF_PERICENTER":85.0846,"MEAN_ANOMALY":46.065,"EPHEMERIS_TYPE":0,"CLASSIFICATION_TYPE":"U","NORAD_CAT_ID":68168,"ELEMENT_SET_NO":999,"REV_AT_EPOCH":480,"BSTAR":-0.013435,"MEAN_MOTION_DOT":-0.01949963,"MEAN_MOTION_DDOT":0},{"OBJECT_NAME":"STARLINK-37077","OBJECT_ID":"2026-050C","EPOCH":"2026-04-05T14:51:15.430176","MEAN_MOTION":15.80981148,"ECCENTRICITY":9.06e-5,"INCLINATION":53.1566,"RA_OF_ASC_NODE":146.8658,"ARG_OF_PERICENTER":105.3612,"MEAN_ANOMALY":254.7511,"EPHEMERIS_TYPE":0,"CLASSIFICATION_TYPE":"U","NORAD_CAT_ID":68169,"ELEMENT_SET_NO":999,"REV_AT_EPOCH":473,"BSTAR":0.0008882,"MEAN_MOTION_DOT":0.00179179,"MEAN_MOTION_DDOT":0},{"OBJECT_NAME":"STARLINK-37003","OBJECT_ID":"2026-050D","EPOCH":"2026-04-05T14:50:10.592160","MEAN_MOTION":15.8100364,"ECCENTRICITY":0.0001192,"INCLINATION":53.1563,"RA_OF_ASC_NODE":146.8604,"ARG_OF_PERICENTER":110.7211,"MEAN_ANOMALY":249.3939,"EPHEMERIS_TYPE":0,"CLASSIFICATION_TYPE":"U","NORAD_CAT_ID":68170,"ELEMENT_SET_NO":999,"REV_AT_EPOCH":473,"BSTAR":0.0011966,"MEAN_MOTION_DOT":0.00243711,"MEAN_MOTION_DDOT":0},{"OBJECT_NAME":"STARLINK-37034","OBJECT_ID":"2026-050E","EPOCH":"2026-04-05T14:49:06.039264","MEAN_MOTION":15.81013576,"ECCENTRICITY":0.0001399,"INCLINATION":53.1567,"RA_OF_ASC_NODE":146.8553,"ARG_OF_PERICENTER":105.839,"MEAN_ANOMALY":254.2787,"EPHEMERIS_TYPE":0,"CLASSIFICATION_TYPE":"U","NORAD_CAT_ID":68171,"ELEMENT_SET_NO":999,"REV_AT_EPOCH":473,"BSTAR":0.0012318,"MEAN_MOTION_DOT":0.00251248,"MEAN_MOTION_DDOT":0},{"OBJECT_NAME":"STARLINK-37031","OBJECT_ID":"2026-050F","EPOCH":"2026-04-05T20:52:09.906240","MEAN_MOTION":15.81021235,"ECCENTRICITY":0.0003164,"INCLINATION":53.1563,"RA_OF_ASC_NODE":145.5825,"ARG_OF_PERICENTER":71.429,"MEAN_ANOMALY":288.7076,"EPHEMERIS_TYPE":0,"CLASSIFICATION_TYPE":"U","NORAD_CAT_ID":68172,"ELEMENT_SET_NO":999,"REV_AT_EPOCH":477,"BSTAR":0.0017372,"MEAN_MOTION_DOT":0.00359292,"MEAN_MOTION_DDOT":0},{"OBJECT_NAME":"STARLINK-37076","OBJECT_ID":"2026-050G","EPOCH":"2026-04-05T20:51:04.605984","MEAN_MOTION":15.81025465,"ECCENTRICITY":0.0001931,"INCLINATION":53.1566,"RA_OF_ASC_NODE":145.5781,"ARG_OF_PERICENTER":75.0862,"MEAN_ANOMALY":285.0375,"EPHEMERIS_TYPE":0,"CLASSIFICATION_TYPE":"U","NORAD_CAT_ID":68173,"ELEMENT_SET_NO":999,"REV_AT_EPOCH":477,"BSTAR":0.0016635,"MEAN_MOTION_DOT":0.00343416,"MEAN_MOTION_DDOT":0},{"OBJECT_NAME":"STARLINK-37078","OBJECT_ID":"2026-050H","EPOCH":"2026-04-05T20:50:00.314880","MEAN_MOTION":15.81011847,"ECCENTRICITY":0.0003214,"INCLINATION":53.1563,"RA_OF_ASC_NODE":145.5728,"ARG_OF_PERICENTER":69.4558,"MEAN_ANOMALY":290.681,"EPHEMERIS_TYPE":0,"CLASSIFICATION_TYPE":"U","NORAD_CAT_ID":68174,"ELEMENT_SET_NO":999,"REV_AT_EPOCH":477,"BSTAR":0.0016352,"MEAN_MOTION_DOT":0.00337125,"MEAN_MOTION_DDOT":0},{"OBJECT_NAME":"STARLINK-36886","OBJECT_ID":"2026-050J","EPOCH":"2026-04-05T20:48:54.815904","MEAN_MOTION":15.80923687,"ECCENTRICITY":0.0002926,"INCLINATION":53.1569,"RA_OF_ASC_NODE":145.5682,"ARG_OF_PERICENTER":70.5386,"MEAN_ANOMALY":289.5953,"EPHEMERIS_TYPE":0,"CLASSIFICATION_TYPE":"U","NORAD_CAT_ID":68175,"ELEMENT_SET_NO":999,"REV_AT_EPOCH":477,"BSTAR":0.0016267,"MEAN_MOTION_DOT":0.00333875,"MEAN_MOTION_DDOT":0},{"OBJECT_NAME":"STARLINK-36905","OBJECT_ID":"2026-050K","EPOCH":"2026-04-05T20:47:50.002944","MEAN_MOTION":15.80994949,"ECCENTRICITY":0.0001952,"INCLINATION":53.1564,"RA_OF_ASC_NODE":145.5629,"ARG_OF_PERICENTER":39.2691,"MEAN_ANOMALY":320.8473,"EPHEMERIS_TYPE":0,"CLASSIFICATION_TYPE":"U","NORAD_CAT_ID":68176,"ELEMENT_SET_NO":999,"REV_AT_EPOCH":477,"BSTAR":0.0013183,"MEAN_MOTION_DOT":0.00269283,"MEAN_MOTION_DDOT":0},{"OBJECT_NAME":"STARLINK-36668","OBJECT_ID":"2026-050L","EPOCH":"2026-04-05T20:00:03.000384","MEAN_MOTION":15.75731135,"ECCENTRICITY":0.0001134,"INCLINATION":53.1592,"RA_OF_ASC_NODE":145.7413,"ARG_OF_PERICENTER":73.015,"MEAN_ANOMALY":90.9171,"EPHEMERIS_TYPE":0,"CLASSIFICATION_TYPE":"U","NORAD_CAT_ID":68177,"ELEMENT_SET_NO":999,"REV_AT_EPOCH":480,"BSTAR":-0.014292,"MEAN_MOTION_DOT":-0.01941804,"MEAN_MOTION_DDOT":0},{"OBJECT_NAME":"STARLINK-36677","OBJECT_ID":"2026-050M","EPOCH":"2026-04-05T20:45:41.050080","MEAN_MOTION":15.81009956,"ECCENTRICITY":0.000342,"INCLINATION":53.157,"RA_OF_ASC_NODE":145.5525,"ARG_OF_PERICENTER":66.4277,"MEAN_ANOMALY":293.7105,"EPHEMERIS_TYPE":0,"CLASSIFICATION_TYPE":"U","NORAD_CAT_ID":68178,"ELEMENT_SET_NO":999,"REV_AT_EPOCH":477,"BSTAR":0.0016905,"MEAN_MOTION_DOT":0.00349019,"MEAN_MOTION_DDOT":0},{"OBJECT_NAME":"STARLINK-37052","OBJECT_ID":"2026-050N","EPOCH":"2026-04-05T20:44:35.742048","MEAN_MOTION":15.81005936,"ECCENTRICITY":0.0001859,"INCLINATION":53.1565,"RA_OF_ASC_NODE":145.5477,"ARG_OF_PERICENTER":67.8949,"MEAN_ANOMALY":292.2271,"EPHEMERIS_TYPE":0,"CLASSIFICATION_TYPE":"U","NORAD_CAT_ID":68179,"ELEMENT_SET_NO":999,"REV_AT_EPOCH":477,"BSTAR":0.001445,"MEAN_MOTION_DOT":0.00296317,"MEAN_MOTION_DDOT":0},{"OBJECT_NAME":"STARLINK-37035","OBJECT_ID":"2026-050P","EPOCH":"2026-04-05T20:43:30.942912","MEAN_MOTION":15.81034364,"ECCENTRICITY":0.0001804,"INCLINATION":53.1565,"RA_OF_ASC_NODE":145.5425,"ARG_OF_PERICENTER":87.2949,"MEAN_ANOMALY":272.828,"EPHEMERIS_TYPE":0,"CLASSIFICATION_TYPE":"U","NORAD_CAT_ID":68180,"ELEMENT_SET_NO":999,"REV_AT_EPOCH":477,"BSTAR":0.0018031,"MEAN_MOTION_DOT":0.00373789,"MEAN_MOTION_DDOT":0},{"OBJECT_NAME":"STARLINK-37032","OBJECT_ID":"2026-050Q","EPOCH":"2026-04-05T14:38:17.466432","MEAN_MOTION":15.81007206,"ECCENTRICITY":0.0001141,"INCLINATION":53.1566,"RA_OF_ASC_NODE":146.8049,"ARG_OF_PERICENTER":107.9354,"MEAN_ANOMALY":252.1793,"EPHEMERIS_TYPE":0,"CLASSIFICATION_TYPE":"U","NORAD_CAT_ID":68181,"ELEMENT_SET_NO":999,"REV_AT_EPOCH":473,"BSTAR":0.0011926,"MEAN_MOTION_DOT":0.00242918,"MEAN_MOTION_DDOT":0},{"OBJECT_NAME":"STARLINK-37082","OBJECT_ID":"2026-050R","EPOCH":"2026-04-05T14:37:12.778752","MEAN_MOTION":15.80988584,"ECCENTRICITY":0.0001543,"INCLINATION":53.1567,"RA_OF_ASC_NODE":146.7996,"ARG_OF_PERICENTER":87.8287,"MEAN_ANOMALY":272.2912,"EPHEMERIS_TYPE":0,"CLASSIFICATION_TYPE":"U","NORAD_CAT_ID":68182,"ELEMENT_SET_NO":999,"REV_AT_EPOCH":473,"BSTAR":0.00097102,"MEAN_MOTION_DOT":0.00196415,"MEAN_MOTION_DDOT":0},{"OBJECT_NAME":"STARLINK-37102","OBJECT_ID":"2026-050S","EPOCH":"2026-04-05T14:36:07.990848","MEAN_MOTION":15.80992737,"ECCENTRICITY":0.00017,"INCLINATION":53.1565,"RA_OF_ASC_NODE":146.7944,"ARG_OF_PERICENTER":67.2572,"MEAN_ANOMALY":292.863,"EPHEMERIS_TYPE":0,"CLASSIFICATION_TYPE":"U","NORAD_CAT_ID":68183,"ELEMENT_SET_NO":999,"REV_AT_EPOCH":473,"BSTAR":0.0010004,"MEAN_MOTION_DOT":0.00202561,"MEAN_MOTION_DDOT":0}]
