STARLINK-36969          
1 68167U 26050A   26095.62042623  .00189613  00000+0  93802-3 0  9990
2 68167  53.1562 146.8758 0000986  72.0755 288.0375 15.80994152  4731
STARLINK-36984          
1 68168U 26050B   26095.83336806 -.01949963  00000+0 -13435-1 0  9990
2 68168  53.1585 145.8103 0000927  85.0846  46.0650 15.77222945  4806
STARLINK-37077          
1 68169U 26050C   26095.61892859  .00179179  00000+0  88820-3 0  9995
2 68169  53.1566 146.8658 0000906 105.3612 254.7511 15.80981148  4733
STARLINK-37003          
1 68170U 26050D   26095.61817815  .00243711  00000+0  11966-2 0  9996
2 68170  53.1563 146.8604 0001192 110.7211 249.3939 15.81003640  4733
STARLINK-37034          
1 68171U 26050E   26095.61743101  .00251248  00000+0  12318-2 0  9999
2 68171  53.1567 146.8553 0001399 105.8390 254.2787 15.81013576  4738
STARLINK-37031          
1 68172U 26050F   26095.86955910  .00359292  00000+0  17372-2 0  9993
2 68172  53.1563 145.5825 0003164  71.4290 288.7076 15.81021235  4770
STARLINK-37076          
1 68173U 26050G   26095.86880331  .00343416  00000+0  16635-2 0  9990
2 68173  53.1566 145.5781 0001931  75.0862 285.0375 15.81025465  4771
STARLINK-37078          
1 68174U 26050H   26095.86805920  .00337125  00000+0  16352-2 0  9998
2 68174  53.1563 145.5728 0003214  69.4558 290.6810 15.81011847  4770
STARLINK-36886          
1 68175U 26050J   26095.86730111  .00333875  00000+0  16267-2 0  9991
2 68175  53.1569 145.5682 0002926  70.5386 289.5953 15.80923687  4775
STARLINK-36905          
1 68176U 26050K   26095.86655096  .00269283  00000+0  13183-2 0  9995
2 68176  53.1564 145.5629 0001952  39.2691 320.8473 15.80994949  4776
STARLINK-36668          
1 68177U 26050L   26095.83336806 -.01941804  00000+0 -14292-1 0  9998
2 68177  53.1592 145.7413 0001134  73.0150  90.9171 15.75731135  4803
STARLINK-36677          
1 68178U 26050M   26095.86505845  .00349019  00000+0  16905-2 0  9994
2 68178  53.1570 145.5525 0003420  66.4277 293.7105 15.81009956  4770
STARLINK-37052          
1 68179U 26050N   26095.86430257  .00296317  00000+0  14450-2 0  9994
2 68179  53.1565 145.5477 0001859  67.8949 292.2271 15.81005936  4778
STARLINK-37035          
1 68180U 26050P   26095.86355258  .00373789  00000+0  18031-2 0  9991
2 68180  53.1565 145.5425 0001804  87.2949 272.8280 15.81034364  4770
STARLINK-37032          
1 68181U 26050Q   26095.60992438  .00242918  00000+0  11926-2 0  9996
2 68181  53.1566 146.8049 0001141 107.9354 252.1793 15.81007206  4733
STARLINK-37082          
1 68182U 26050R   26095.60917568  .00196415  00000+0  97102-3 0  9999
2 68182  53.1567 146.7996 0001543  87.8287 272.2912 15.80988584  4734
STARLINK-37102          
1 68183U 26050S   26095.60842582  .00202561  00000+0  10004-2 0  9998
2 68183  53.1565 146.7944 0001700  67.2572 292.8630 15.80992737  4730
